{"type": "FeatureCollection", "features": [ {"type": "Feature", "properties": {"norad_id": 44506, "name": "GPS BIII-2  (PRN 18)", "group": "gnss", "lat": -5.106064505215544, "lon": -25.186921578174797, "alt_km": 20321.689499876895, "timestamp": "2025-12-18T15:47:11.465621+00:00", "meta": {"OBJECT_NAME": "GPS BIII-2  (PRN 18)", "OBJECT_ID": "2019-056A", "EPOCH": "2025-12-18T07:32:42.973728", "MEAN_MOTION": 2.00566635, "ECCENTRICITY": 0.00577192, "INCLINATION": 55.7194, "RA_OF_ASC_NODE": 338.3313, "ARG_OF_PERICENTER": 198.5145, "MEAN_ANOMALY": 267.0868, "EPHEMERIS_TYPE": 0, "CLASSIFICATION_TYPE": "U", "NORAD_CAT_ID": 44506, "ELEMENT_SET_NO": 999, "REV_AT_EPOCH": 4644, "BSTAR": 0, "MEAN_MOTION_DOT": -8.5e-07, "MEAN_MOTION_DDOT": 0}, "tle": {"line1": "1 44506U 19056A   25352.31438627 -.00000085  00000+0  00000+0 0  9993", "line2": "2 44506  55.7194 338.3313 0057719 198.5145 267.0868  2.00566635 46446"}}, "geometry": {"type": "Point", "coordinates": [-25.186921578174797, -5.106064505215544]}}, {"type": "Feature", "properties": {"norad_id": 44542, "name": "BEIDOU-3 M24 (C46)", "group": "gnss", "lat": -48.676220737564414, "lon": 63.429887820295455, "alt_km": 21553.38020783999, "timestamp": "2025-12-18T15:47:11.465632+00:00", "meta": {"OBJECT_NAME": "BEIDOU-3 M24 (C46)", "OBJECT_ID": "2019-061A", "EPOCH": "2025-12-16T03:22:44.327712", "MEAN_MOTION": 1.86229353, "ECCENTRICITY": 0.00096014, "INCLINATION": 54.4001, "RA_OF_ASC_NODE": 188.9011, "ARG_OF_PERICENTER": 24.8001, "MEAN_ANOMALY": 335.316, "EPHEMERIS_TYPE": 0, "CLASSIFICATION_TYPE": "U", "NORAD_CAT_ID": 44542, "ELEMENT_SET_NO": 999, "REV_AT_EPOCH": 4238, "BSTAR": 0, "MEAN_MOTION_DOT": 1.15e-06, "MEAN_MOTION_DDOT": 0}, "tle": {"line1": "1 44542U 19061A   25350.14079083  .00000115  00000+0  00000+0 0  9998", "line2": "2 44542  54.4001 188.9011 0009601  24.8001 335.3160  1.86229353 42381"}}, "geometry": {"type": "Point", "coordinates": [63.429887820295455, -48.676220737564414]}}, {"type": "Feature", "properties": {"norad_id": 44543, "name": "BEIDOU-3 M23 (C45)", "group": "gnss", "lat": 15.837595752415607, "lon": -2.9411116047546373, "alt_km": 21538.65219778454, "timestamp": "2025-12-18T15:47:11.465643+00:00", "meta": {"OBJECT_NAME": "BEIDOU-3 M23 (C45)", "OBJECT_ID": "2019-061B", "EPOCH": "2025-12-18T04:28:40.463616", "MEAN_MOTION": 1.86227759, "ECCENTRICITY": 0.00060655, "INCLINATION": 54.3991, "RA_OF_ASC_NODE": 188.8006, "ARG_OF_PERICENTER": 24.5513, "MEAN_ANOMALY": 179.8901, "EPHEMERIS_TYPE": 0, "CLASSIFICATION_TYPE": "U", "NORAD_CAT_ID": 44543, "ELEMENT_SET_NO": 999, "REV_AT_EPOCH": 4242, "BSTAR": 0, "MEAN_MOTION_DOT": 1.09e-06, "MEAN_MOTION_DDOT": 0}, "tle": {"line1": "1 44543U 19061B   25352.18657944  .00000109  00000+0  00000+0 0  9996", "line2": "2 44543  54.3991 188.8006 0006065  24.5513 179.8901  1.86227759 42425"}}, "geometry": {"type": "Point", "coordinates": [-2.9411116047546373, 15.837595752415607]}}, {"type": "Feature", "properties": {"norad_id": 44624, "name": "EUTELSAT 5 WEST B (EGNOS/PRN 121)", "group": "gnss", "lat": -0.02439550830797831, "lon": -40.6606337984404, "alt_km": 35778.396536038155, "timestamp": "2025-12-18T15:47:11.465659+00:00", "meta": {"OBJECT_NAME": "EUTELSAT 5 WEST B (EGNOS/PRN 121)", "OBJECT_ID": "2019-067A", "EPOCH": "2025-12-18T03:51:38.597760", "MEAN_MOTION": 1.00271226, "ECCENTRICITY": 0.00030101, "INCLINATION": 0.0701, "RA_OF_ASC_NODE": 330.5197, "ARG_OF_PERICENTER": 296.7248, "MEAN_ANOMALY": 232.7035, "EPHEMERIS_TYPE": 0, "CLASSIFICATION_TYPE": "U", "NORAD_CAT_ID": 44624, "ELEMENT_SET_NO": 999, "REV_AT_EPOCH": 2262, "BSTAR": 0, "MEAN_MOTION_DOT": -1.7e-07, "MEAN_MOTION_DDOT": 0}, "tle": {"line1": "1 44624U 19067A   25352.16086340 -.00000017  00000+0  00000+0 0  9995", "line2": "2 44624   0.0701 330.5197 0003010 296.7248 232.7035  1.00271226 22625"}}, "geometry": {"type": "Point", "coordinates": [-40.6606337984404, -0.02439550830797831]}}, {"type": "Feature", "properties": {"norad_id": 44709, "name": "BEIDOU-3 IGSO-3 (C40)", "group": "gnss", "lat": 21.283821201874208, "lon": 87.085200745484, "alt_km": 35643.14163541298, "timestamp": "2025-12-18T15:47:11.465671+00:00", "meta": {"OBJECT_NAME": "BEIDOU-3 IGSO-3 (C40)", "OBJECT_ID": "2019-073A", "EPOCH": "2025-11-20T07:11:22.740000", "MEAN_MOTION": 1.00250097, "ECCENTRICITY": 0.0044538, "INCLINATION": 55.163, "RA_OF_ASC_NODE": 283.159, "ARG_OF_PERICENTER": 191.5856, "MEAN_ANOMALY": 168.2409, "EPHEMERIS_TYPE": 0, "CLASSIFICATION_TYPE": "U", "NORAD_CAT_ID": 44709, "ELEMENT_SET_NO": 999, "REV_AT_EPOCH": 2236, "BSTAR": 0, "MEAN_MOTION_DOT": -2.06e-06, "MEAN_MOTION_DDOT": 0}, "tle": {"line1": "1 44709U 19073A   25324.29956875 -.00000206  00000+0  00000+0 0  9998", "line2": "2 44709  55.1630 283.1590 0044538 191.5856 168.2409  1.00250097 22360"}}, "geometry": {"type": "Point", "coordinates": [87.085200745484, 21.283821201874208]}}, {"type": "Feature", "properties": {"norad_id": 44793, "name": "BEIDOU-3 M22 (C44)", "group": "gnss", "lat": -4.222933815887757, "lon": -56.909052867516515, "alt_km": 21514.199871813187, "timestamp": "2025-12-18T15:47:11.465686+00:00", "meta": {"OBJECT_NAME": "BEIDOU-3 M22 (C44)", "OBJECT_ID": "2019-078A", "EPOCH": "2025-12-17T14:11:57.933600", "MEAN_MOTION": 1.86232151, "ECCENTRICITY": 0.00059947, "INCLINATION": 54.1037, "RA_OF_ASC_NODE": 306.2155, "ARG_OF_PERICENTER": 24.2976, "MEAN_ANOMALY": 335.7178, "EPHEMERIS_TYPE": 0, "CLASSIFICATION_TYPE": "U", "NORAD_CAT_ID": 44793, "ELEMENT_SET_NO": 999, "REV_AT_EPOCH": 4126, "BSTAR": 0, "MEAN_MOTION_DOT": -8.9e-07, "MEAN_MOTION_DDOT": 0}, "tle": {"line1": "1 44793U 19078A   25351.59164275 -.00000089  00000+0  00000+0 0  9993", "line2": "2 44793  54.1037 306.2155 0005994  24.2976 335.7178  1.86232151 41264"}}, "geometry": {"type": "Point", "coordinates": [-56.909052867516515, -4.222933815887757]}}, {"type": "Feature", "properties": {"norad_id": 44794, "name": "BEIDOU-3 M21 (C43)", "group": "gnss", "lat": -53.392082920376005, "lon": -156.7133999178753, "alt_km": 21537.958048835917, "timestamp": "2025-12-18T15:47:11.465697+00:00", "meta": {"OBJECT_NAME": "BEIDOU-3 M21 (C43)", "OBJECT_ID": "2019-078B", "EPOCH": "2025-12-16T15:43:55.727904", "MEAN_MOTION": 1.86227668, "ECCENTRICITY": 0.00041169, "INCLINATION": 54.078, "RA_OF_ASC_NODE": 306.2132, "ARG_OF_PERICENTER": 11.942, "MEAN_ANOMALY": 348.0544, "EPHEMERIS_TYPE": 0, "CLASSIFICATION_TYPE": "U", "NORAD_CAT_ID": 44794, "ELEMENT_SET_NO": 999, "REV_AT_EPOCH": 4125, "BSTAR": 0, "MEAN_MOTION_DOT": -9.5e-07, "MEAN_MOTION_DDOT": 0}, "tle": {"line1": "1 44794U 19078B   25350.65550611 -.00000095  00000+0  00000+0 0  9990", "line2": "2 44794  54.0780 306.2132 0004116  11.9420 348.0544  1.86227668 41256"}}, "geometry": {"type": "Point", "coordinates": [-156.7133999178753, -53.392082920376005]}}, {"type": "Feature", "properties": {"norad_id": 44850, "name": "COSMOS 2544 (759)", "group": "gnss", "lat": -40.4351140355773, "lon": -77.36597802923657, "alt_km": 19102.65598450039, "timestamp": "2025-12-18T15:47:11.465709+00:00", "meta": {"OBJECT_NAME": "COSMOS 2544 (759)", "OBJECT_ID": "2019-088A", "EPOCH": "2025-12-16T11:40:43.010688", "MEAN_MOTION": 2.13101965, "ECCENTRICITY": 0.00138869, "INCLINATION": 65.4623, "RA_OF_ASC_NODE": 79.8328, "ARG_OF_PERICENTER": 249.7945, "MEAN_ANOMALY": 110.0707, "EPHEMERIS_TYPE": 0, "CLASSIFICATION_TYPE": "U", "NORAD_CAT_ID": 44850, "ELEMENT_SET_NO": 999, "REV_AT_EPOCH": 4682, "BSTAR": 0, "MEAN_MOTION_DOT": -5.3e-07, "MEAN_MOTION_DDOT": 0}, "tle": {"line1": "1 44850U 19088A   25350.48660892 -.00000053  00000+0  00000+0 0  9992", "line2": "2 44850  65.4623  79.8328 0013886 249.7945 110.0707  2.13101965 46826"}}, "geometry": {"type": "Point", "coordinates": [-77.36597802923657, -40.4351140355773]}}, {"type": "Feature", "properties": {"norad_id": 44864, "name": "BEIDOU-3 M19 (C41)", "group": "gnss", "lat": 55.54346041736678, "lon": 173.43860442315918, "alt_km": 21571.85657824781, "timestamp": "2025-12-18T15:47:11.465720+00:00", "meta": {"OBJECT_NAME": "BEIDOU-3 M19 (C41)", "OBJECT_ID": "2019-090A", "EPOCH": "2025-12-16T21:16:08.319360", "MEAN_MOTION": 1.86231655, "ECCENTRICITY": 0.00181701, "INCLINATION": 56.3969, "RA_OF_ASC_NODE": 68.8236, "ARG_OF_PERICENTER": 285.0658, "MEAN_ANOMALY": 65.3992, "EPHEMERIS_TYPE": 0, "CLASSIFICATION_TYPE": "U", "NORAD_CAT_ID": 44864, "ELEMENT_SET_NO": 999, "REV_AT_EPOCH": 4083, "BSTAR": 0, "MEAN_MOTION_DOT": -7.7e-07, "MEAN_MOTION_DDOT": 0}, "tle": {"line1": "1 44864U 19090A   25350.88620740 -.00000077  00000+0  00000+0 0  9998", "line2": "2 44864  56.3969  68.8236 0018170 285.0658  65.3992  1.86231655 40836"}}, "geometry": {"type": "Point", "coordinates": [173.43860442315918, 55.54346041736678]}}, {"type": "Feature", "properties": {"norad_id": 44865, "name": "BEIDOU-3 M20 (C42)", "group": "gnss", "lat": -6.394615122092373, "lon": -106.92072904490337, "alt_km": 21543.523562680813, "timestamp": "2025-12-18T15:47:11.465738+00:00", "meta": {"OBJECT_NAME": "BEIDOU-3 M20 (C42)", "OBJECT_ID": "2019-090B", "EPOCH": "2025-12-14T14:16:43.218624", "MEAN_MOTION": 1.86231589, "ECCENTRICITY": 0.00151163, "INCLINATION": 56.3967, "RA_OF_ASC_NODE": 68.9336, "ARG_OF_PERICENTER": 297.6834, "MEAN_ANOMALY": 46.2212, "EPHEMERIS_TYPE": 0, "CLASSIFICATION_TYPE": "U", "NORAD_CAT_ID": 44865, "ELEMENT_SET_NO": 999, "REV_AT_EPOCH": 4077, "BSTAR": 0, "MEAN_MOTION_DOT": -8.3e-07, "MEAN_MOTION_DDOT": 0}, "tle": {"line1": "1 44865U 19090B   25348.59494466 -.00000083  00000+0  00000+0 0  9995", "line2": "2 44865  56.3967  68.9336 0015116 297.6834  46.2212  1.86231589 40771"}}, "geometry": {"type": "Point", "coordinates": [-106.92072904490337, -6.394615122092373]}}]}